ONEWEB-0687             
1 61595U 24188B   25291.90564552 -.00000158  00000+0 -43891-3 0  9997
2 61595  87.9097  53.8852 0001917  81.0249 279.1099 13.17648268 54126
ONEWEB-0688             
1 61596U 24188C   25291.78245512  .00000023  00000+0  27204-4 0  9996
2 61596  87.9095  53.9098 0001211  47.8721 312.2514 13.17648465 54108
ONEWEB-0689             
1 61597U 24188D   25291.94038971 -.00000337  00000+0 -98651-3 0  9997
2 61597  87.8802  69.0894 0001839  89.0567 271.0772 13.11415026 52833
ONEWEB-0690             
1 61598U 24188E   25291.95055009 -.00000550  00000+0 -15868-2 0  9995
2 61598  87.8842  69.0833 0001375 125.2970 234.8286 13.11418201 53013
ONEWEB-0691             
1 61599U 24188F   25291.94547430 -.00000510  00000+0 -14758-2 0  9992
2 61599  87.8771  69.0139 0001279  84.7787 275.3487 13.11415936 52869
ONEWEB-0692             
1 61600U 24188G   25291.88951383 -.00000437  00000+0 -12699-2 0  9994
2 61600  87.8819  69.1519 0002487 104.2972 255.8433 13.11418970 52847
ONEWEB-0693             
1 61601U 24188H   25291.87018717  .00000050  00000+0  95721-4 0  9997
2 61601  87.9096  53.9109 0001102 126.4454 233.6779 13.17648107 54107
ONEWEB-0695             
1 61602U 24188J   25291.94208531 -.00000400  00000+0 -11655-2 0  9994
2 61602  87.8820  69.1293 0002133  91.9909 268.1463 13.11415097 52847
